start=new Date('2022-04-20T00:00:00.000Z').valueOf();
sats=[{"PERIAPSIS":"405.304","MEAN_ANOMALY":"25.5192","MEAN_MOTION":"15.53486823","COUNTRY_CODE":"US","SEMIMAJOR_AXIS":"6784.692","DECAY_DATE":null,"CLASSIFICATION_TYPE":"U","BSTAR":"-0.01212100000000","EPOCH":"2022-04-19T14:00:01.000224","APOAPSIS":"407.810","TIME_SYSTEM":"UTC","OBJECT_ID":"2022-016X","CENTER_NAME":"EARTH","REF_FRAME":"TEME","OBJECT_NAME":"STARLINK-3517","TLE_LINE1":"1 51735U 22016X   22109.58334491 -.00716034  00000-0 -12121-1 0  9994","RA_OF_ASC_NODE":"218.5736","OBJECT_TYPE":"PAYLOAD","ARG_OF_PERICENTER":"30.0250","GP_ID":"201630887","INCLINATION":"53.2174","REV_AT_EPOCH":"370","ECCENTRICITY":"0.00018470","TLE_LINE2":"2 51735  53.2174 218.5736 0001847  30.0250  25.5192 15.53486823  3706","NORAD_CAT_ID":"51735","ELEMENT_SET_NO":"999","RCS_SIZE":"MEDIUM","EPHEMERIS_TYPE":"0","FILE":"3408368","SITE":"AFETR","MEAN_MOTION_DOT":"-0.00716034","MEAN_ELEMENT_THEORY":"SGP4","PERIOD":"92.695","MEAN_MOTION_DDOT":"0.0000000000000","LAUNCH_DATE":"2022-02-21"},{"GP_ID":"201630270","INCLINATION":"53.2173","REV_AT_EPOCH":"370","ECCENTRICITY":"0.00017400","NORAD_CAT_ID":"51736","TLE_LINE2":"2 51736  53.2173 218.5702 0001740  34.7101 292.7127 15.51620726  3703","ELEMENT_SET_NO":"999","RCS_SIZE":"LARGE","FILE":"3408368","SITE":"AFETR","EPHEMERIS_TYPE":"0","MEAN_MOTION_DOT":"-0.00723745","MEAN_ELEMENT_THEORY":"SGP4","PERIOD":"92.806","MEAN_MOTION_DDOT":"0.0000000000000","LAUNCH_DATE":"2022-02-21","PERIAPSIS":"410.814","MEAN_ANOMALY":"292.7127","MEAN_MOTION":"15.51620726","COUNTRY_CODE":"US","SEMIMAJOR_AXIS":"6790.131","DECAY_DATE":null,"CLASSIFICATION_TYPE":"U","BSTAR":"-0.01294300000000","EPOCH":"2022-04-19T14:00:01.000224","APOAPSIS":"413.177","TIME_SYSTEM":"UTC","OBJECT_ID":"2022-016Y","CENTER_NAME":"EARTH","REF_FRAME":"TEME","OBJECT_NAME":"STARLINK-3447","RA_OF_ASC_NODE":"218.5702","TLE_LINE1":"1 51736U 22016Y   22109.58334491 -.00723745  00000-0 -12943-1 0  9994","OBJECT_TYPE":"PAYLOAD","ARG_OF_PERICENTER":"34.7101"},{"MEAN_MOTION_DOT":"-0.00722803","PERIOD":"92.829","MEAN_ELEMENT_THEORY":"SGP4","MEAN_MOTION_DDOT":"0.0000000000000","LAUNCH_DATE":"2022-02-21","GP_ID":"201630451","INCLINATION":"53.2173","REV_AT_EPOCH":"370","NORAD_CAT_ID":"51737","TLE_LINE2":"2 51737  53.2173 218.5706 0001637  40.4352 265.4192 15.51236724  3705","ELEMENT_SET_NO":"999","ECCENTRICITY":"0.00016370","SITE":"AFETR","FILE":"3408368","EPHEMERIS_TYPE":"0","RCS_SIZE":"LARGE","BSTAR":"-0.01310500000000","EPOCH":"2022-04-19T14:00:01.000224","OBJECT_ID":"2022-016Z","CENTER_NAME":"EARTH","TIME_SYSTEM":"UTC","APOAPSIS":"414.228","OBJECT_NAME":"STARLINK-3509","TLE_LINE1":"1 51737U 22016Z   22109.58334491 -.00722803  00000-0 -13105-1 0  9990","OBJECT_TYPE":"PAYLOAD","RA_OF_ASC_NODE":"218.5706","REF_FRAME":"TEME","ARG_OF_PERICENTER":"40.4352","PERIAPSIS":"412.004","MEAN_MOTION":"15.51236724","MEAN_ANOMALY":"265.4192","DECAY_DATE":null,"COUNTRY_CODE":"US","SEMIMAJOR_AXIS":"6791.251","CLASSIFICATION_TYPE":"U"},{"ARG_OF_PERICENTER":"39.2529","OBJECT_NAME":"STARLINK-3515","OBJECT_TYPE":"PAYLOAD","TLE_LINE1":"1 51738U 22016AA  22109.91667824 -.00721987  00000-0 -13029-1 0  9994","RA_OF_ASC_NODE":"216.9706","REF_FRAME":"TEME","OBJECT_ID":"2022-016AA","CENTER_NAME":"EARTH","TIME_SYSTEM":"UTC","APOAPSIS":"413.741","BSTAR":"-0.01302900000000","EPOCH":"2022-04-19T22:00:00.999936","CLASSIFICATION_TYPE":"U","DECAY_DATE":null,"COUNTRY_CODE":"US","SEMIMAJOR_AXIS":"6790.875","MEAN_MOTION":"15.51365716","MEAN_ANOMALY":"5.3518","PERIAPSIS":"411.738","MEAN_MOTION_DDOT":"0.0000000000000","LAUNCH_DATE":"2022-02-21","PERIOD":"92.821","MEAN_ELEMENT_THEORY":"SGP4","MEAN_MOTION_DOT":"-0.00721987","SITE":"AFETR","FILE":"3408765","EPHEMERIS_TYPE":"0","RCS_SIZE":"LARGE","NORAD_CAT_ID":"51738","TLE_LINE2":"2 51738  53.2173 216.9706 0001475  39.2529   5.3518 15.51365716 10277","ELEMENT_SET_NO":"999","ECCENTRICITY":"0.00014750","REV_AT_EPOCH":"1027","INCLINATION":"53.2173","GP_ID":"201640188"},{"ARG_OF_PERICENTER":"33.0993","OBJECT_NAME":"STARLINK-3516","TLE_LINE1":"1 51739U 22016AB  22109.58334491 -.00723616  00000-0 -13000-1 0  9999","OBJECT_TYPE":"PAYLOAD","RA_OF_ASC_NODE":"218.5703","REF_FRAME":"TEME","OBJECT_ID":"2022-016AB","CENTER_NAME":"EARTH","APOAPSIS":"413.606","TIME_SYSTEM":"UTC","BSTAR":"-0.01300000000000","EPOCH":"2022-04-19T14:00:01.000224","CLASSIFICATION_TYPE":"U","DECAY_DATE":null,"COUNTRY_CODE":"US","SEMIMAJOR_AXIS":"6790.504","MEAN_MOTION":"15.51492815","MEAN_ANOMALY":"287.1724","PERIAPSIS":"411.132","MEAN_MOTION_DDOT":"0.0000000000000","LAUNCH_DATE":"2022-02-21","PERIOD":"92.814","MEAN_ELEMENT_THEORY":"SGP4","MEAN_MOTION_DOT":"-0.00723616","FILE":"3408368","SITE":"AFETR","EPHEMERIS_TYPE":"0","RCS_SIZE":"LARGE","NORAD_CAT_ID":"51739","TLE_LINE2":"2 51739  53.2173 218.5703 0001822  33.0993 287.1724 15.51492815  3706","ELEMENT_SET_NO":"999","ECCENTRICITY":"0.00018220","REV_AT_EPOCH":"370","INCLINATION":"53.2173","GP_ID":"201630542"},{"ARG_OF_PERICENTER":"30.0468","OBJECT_NAME":"STARLINK-3500","OBJECT_TYPE":"PAYLOAD","TLE_LINE1":"1 51740U 22016AC  22109.58334491 -.00715552  00000-0 -12726-1 0  9995","RA_OF_ASC_NODE":"218.5675","REF_FRAME":"TEME","OBJECT_ID":"2022-016AC","CENTER_NAME":"EARTH","TIME_SYSTEM":"UTC","APOAPSIS":"411.769","BSTAR":"-0.01272600000000","EPOCH":"2022-04-19T14:00:01.000224","CLASSIFICATION_TYPE":"U","DECAY_DATE":null,"COUNTRY_CODE":"US","SEMIMAJOR_AXIS":"6788.650","MEAN_MOTION":"15.52128344","MEAN_ANOMALY":"326.0254","PERIAPSIS":"409.261","MEAN_MOTION_DDOT":"0.0000000000000","LAUNCH_DATE":"2022-02-21","PERIOD":"92.776","MEAN_ELEMENT_THEORY":"SGP4","MEAN_MOTION_DOT":"-0.00715552","FILE":"3408368","SITE":"AFETR","EPHEMERIS_TYPE":"0","RCS_SIZE":"LARGE","TLE_LINE2":"2 51740  53.2173 218.5675 0001847  30.0468 326.0254 15.52128344  3702","NORAD_CAT_ID":"51740","ELEMENT_SET_NO":"999","ECCENTRICITY":"0.00018470","REV_AT_EPOCH":"370","INCLINATION":"53.2173","GP_ID":"201630618"},{"MEAN_ANOMALY":"303.6526","MEAN_MOTION":"15.51748742","PERIAPSIS":"410.367","CLASSIFICATION_TYPE":"U","SEMIMAJOR_AXIS":"6789.757","COUNTRY_CODE":"US","DECAY_DATE":null,"APOAPSIS":"412.877","TIME_SYSTEM":"UTC","CENTER_NAME":"EARTH","OBJECT_ID":"2022-016AD","EPOCH":"2022-04-19T14:00:01.000224","BSTAR":"-0.01289000000000","ARG_OF_PERICENTER":"30.8828","REF_FRAME":"TEME","TLE_LINE1":"1 51741U 22016AD  22109.58334491 -.00714949  00000-0 -12890-1 0  9997","RA_OF_ASC_NODE":"218.5697","OBJECT_TYPE":"PAYLOAD","OBJECT_NAME":"STARLINK-3520","REV_AT_EPOCH":"370","INCLINATION":"53.2173","GP_ID":"201630798","RCS_SIZE":"LARGE","FILE":"3408368","EPHEMERIS_TYPE":"0","SITE":"AFETR","ECCENTRICITY":"0.00018480","TLE_LINE2":"2 51741  53.2173 218.5697 0001848  30.8828 303.6526 15.51748742  3708","NORAD_CAT_ID":"51741","ELEMENT_SET_NO":"999","MEAN_ELEMENT_THEORY":"SGP4","PERIOD":"92.799","MEAN_MOTION_DOT":"-0.00714949","LAUNCH_DATE":"2022-02-21","MEAN_MOTION_DDOT":"0.0000000000000"},{"MEAN_ANOMALY":"331.4579","MEAN_MOTION":"15.52256262","PERIAPSIS":"408.941","CLASSIFICATION_TYPE":"U","COUNTRY_CODE":"US","SEMIMAJOR_AXIS":"6788.277","DECAY_DATE":null,"TIME_SYSTEM":"UTC","APOAPSIS":"411.343","OBJECT_ID":"2022-016AE","CENTER_NAME":"EARTH","BSTAR":"-0.01266900000000","EPOCH":"2022-04-19T14:00:01.000224","ARG_OF_PERICENTER":"31.5746","REF_FRAME":"TEME","OBJECT_NAME":"STARLINK-3521","TLE_LINE1":"1 51742U 22016AE  22109.58334491 -.00715632  00000-0 -12669-1 0  9992","OBJECT_TYPE":"PAYLOAD","RA_OF_ASC_NODE":"218.5668","REV_AT_EPOCH":"370","INCLINATION":"53.2173","GP_ID":"201630708","RCS_SIZE":"LARGE","FILE":"3408368","EPHEMERIS_TYPE":"0","SITE":"AFETR","ECCENTRICITY":"0.00017690","TLE_LINE2":"2 51742  53.2173 218.5668 0001769  31.5746 331.4579 15.52256262  3705","ELEMENT_SET_NO":"999","NORAD_CAT_ID":"51742","MEAN_ELEMENT_THEORY":"SGP4","PERIOD":"92.768","MEAN_MOTION_DOT":"-0.00715632","MEAN_MOTION_DDOT":"0.0000000000000","LAUNCH_DATE":"2022-02-21"},{"COUNTRY_CODE":"US","SEMIMAJOR_AXIS":"6727.791","DECAY_DATE":null,"CLASSIFICATION_TYPE":"U","PERIAPSIS":"348.204","MEAN_ANOMALY":"227.3567","MEAN_MOTION":"15.73236565","REF_FRAME":"TEME","OBJECT_NAME":"STARLINK-3512","OBJECT_TYPE":"PAYLOAD","TLE_LINE1":"1 51743U 22016AF  22109.91667824 -.00061425  00000-0 -43569-3 0  9998","RA_OF_ASC_NODE":"215.8985","ARG_OF_PERICENTER":"20.1767","BSTAR":"-0.00043569000000","EPOCH":"2022-04-19T22:00:00.999936","TIME_SYSTEM":"UTC","APOAPSIS":"351.108","OBJECT_ID":"2022-016AF","CENTER_NAME":"EARTH","ECCENTRICITY":"0.00021580","NORAD_CAT_ID":"51743","TLE_LINE2":"2 51743  53.2123 215.8985 0002158  20.1767 227.3567 15.73236565 10315","ELEMENT_SET_NO":"999","RCS_SIZE":"LARGE","EPHEMERIS_TYPE":"0","FILE":"3408770","SITE":"AFETR","INCLINATION":"53.2123","GP_ID":"201640418","REV_AT_EPOCH":"1031","MEAN_MOTION_DDOT":"0.0000000000000","LAUNCH_DATE":"2022-02-21","MEAN_MOTION_DOT":"-0.00061425","MEAN_ELEMENT_THEORY":"SGP4","PERIOD":"91.531"},{"INCLINATION":"53.2173","GP_ID":"201630271","REV_AT_EPOCH":"370","ECCENTRICITY":"0.00016420","ELEMENT_SET_NO":"999","TLE_LINE2":"2 51744  53.2173 218.5653 0001642  35.4459 339.7185 15.52477747  3702","NORAD_CAT_ID":"51744","RCS_SIZE":"LARGE","SITE":"AFETR","FILE":"3408368","EPHEMERIS_TYPE":"0","MEAN_MOTION_DOT":"-0.00715889","MEAN_ELEMENT_THEORY":"SGP4","PERIOD":"92.755","LAUNCH_DATE":"2022-02-21","MEAN_MOTION_DDOT":"0.0000000000000","PERIAPSIS":"408.382","MEAN_ANOMALY":"339.7185","MEAN_MOTION":"15.52477747","SEMIMAJOR_AXIS":"6787.631","COUNTRY_CODE":"US","DECAY_DATE":null,"CLASSIFICATION_TYPE":"U","EPOCH":"2022-04-19T14:00:01.000224","BSTAR":"-0.01257300000000","TIME_SYSTEM":"UTC","APOAPSIS":"410.611","CENTER_NAME":"EARTH","OBJECT_ID":"2022-016AG","REF_FRAME":"TEME","TLE_LINE1":"1 51744U 22016AG  22109.58334491 -.00715889  00000-0 -12573-1 0  9992","OBJECT_TYPE":"PAYLOAD","RA_OF_ASC_NODE":"218.5653","OBJECT_NAME":"STARLINK-3452","ARG_OF_PERICENTER":"35.4459"}];
